GLOBALSTAR M024         
1 25883U 99043A   25318.68003993 -.00000110  00000+0 -16105-2 0  9996
2 25883  52.0054  41.0541 0000948 359.7203 171.5498 11.10169905131574
GLOBALSTAR M027         
1 25884U 99043B   25318.74658698 -.00000072  00000+0 -31498-3 0  9992
2 25884  52.0174 123.1525 0020694 232.3308 127.5608 11.04373221157870
GLOBALSTAR M054         
1 25885U 99043C   25318.45558514 -.00000040  00000+0  79546-3 0  9997
2 25885  52.0127 225.8847 0005941  72.3413  99.1421 11.39223475136173
GLOBALSTAR M053         
1 25886U 99043D   25318.57490920 -.00000048  00000+0  58941-3 0  9991
2 25886  51.9947 181.0382 0003466 359.9276  15.9708 11.27668600136411
GLOBALSTAR M058         
1 25907U 99049A   25318.67660644 -.00000054  00000+0  40956-3 0  9998
2 25907  51.9951  67.3229 0002133 182.0724 178.0102 11.93204422559508
GLOBALSTAR M050         
1 25908U 99049B   25318.61592683 -.00000039  00000+0  55949-3 0  9991
2 25908  52.0002  63.9225 0008419 334.4943  38.2747 12.07461201166361
GLOBALSTAR M033         
1 25909U 99049C   25318.08018437 -.00000085  00000+0  64485-4 0  9990
2 25909  51.9921 286.8743 0013551 212.9716 147.0287 12.20293116554049
GLOBALSTAR M055         
1 25910U 99049D   25318.66231634 -.00000049  00000+0  39137-3 0  9997
2 25910  52.0026 288.6571 0007353  81.7700 278.3985 12.29435791186798
